OBJECT_NAME,OBJECT_ID,EPOCH,MEAN_MOTION,ECCENTRICITY,INCLINATION,RA_OF_ASC_NODE,ARG_OF_PERICENTER,MEAN_ANOMALY,EPHEMERIS_TYPE,CLASSIFICATION_TYPE,NORAD_CAT_ID,ELEMENT_SET_NO,REV_AT_EPOCH,BSTAR,MEAN_MOTION_DOT,MEAN_MOTION_DDOT
ALOS-2,2014-029A,2026-07-22T22:00:24.740928,14.79473003,.00016199,97.9224,300.5703,92.6159,267.5238,0,U,39766,999,65686,.17332325E-3,.1243E-4,0
KAZEOSAT 2,2014-033A,2026-07-22T22:20:00.268224,14.85508221,.00079865,97.5403,41.6521,190.8129,169.2917,0,U,40010,999,65426,.87055426E-4,.702E-5,0
HODOYOSHI-4,2014-033B,2026-07-22T22:32:44.456352,14.88204307,.00233778,97.5470,27.0395,183.0523,177.0555,0,U,40011,999,65412,.20660995E-3,.1863E-4,0
DEIMOS-2,2014-033D,2026-07-22T22:53:29.793984,14.93813710,.0001545,97.5787,77.1789,104.3447,255.7945,0,U,40013,999,64306,.13145272E-3,.134E-4,0
HODOYOSHI-3,2014-033F,2026-07-22T21:17:24.265824,14.85449421,.00315714,97.6454,5.4994,235.4440,124.3795,0,U,40015,999,65292,.12165765E-3,.1005E-4,0
SPOT 7,2014-034A,2026-07-22T22:22:47.459136,14.60984601,.00016969,98.0609,265.4997,94.4528,265.6867,0,U,40053,999,64235,.40224506E-4,.152E-5,0
SKYSAT-B,2014-037D,2026-07-21T14:53:10.114944,14.88102443,.00060203,98.3858,163.5543,153.0763,207.0765,0,U,40072,999,65108,.10248307E-3,.881E-5,0
WORLDVIEW-3 (WV-3),2014-048A,2026-07-22T22:41:45.259872,14.85072929,.00018485,97.8550,278.2828,143.8996,216.2344,0,U,40115,999,64721,.80347864E-4,.633E-5,0
GAOFEN-2,2014-049A,2026-07-22T23:40:56.653248,14.80932116,.00086543,98.0089,268.1563,113.2185,246.9940,0,U,40118,999,64453,.11944917E-4,.39E-6,0
YAOGAN-21,2014-053A,2026-07-22T22:49:18.209280,15.26831698,.00067097,97.1465,242.6579,339.8626,20.2347,0,U,40143,999,66041,.20534563E-3,.5347E-4,0
YAOGAN-22,2014-063A,2026-07-22T20:29:12.820704,13.15531726,.00069127,100.7772,355.7263,109.5155,250.6703,0,U,40275,999,56450,.83718394E-4,-.15E-6,0
ASNARO,2014-070A,2026-07-22T23:32:50.139168,15.19456305,.00046519,97.3436,279.1299,69.9614,290.2121,0,U,40298,999,64944,.28369921E-3,.5951E-4,0
YAOGAN-24,2014-072A,2026-07-22T22:34:20.967744,14.76124978,.00151988,98.1534,341.5851,145.6477,214.5718,0,U,40310,999,62899,.10100499E-3,.645E-5,0
CBERS 4,2014-079A,2026-07-22T22:24:23.025312,14.35516529,.00005599,98.3512,259.6399,78.8436,281.2813,0,U,40336,999,60908,-.46632512E-4,-.176E-5,0
YAOGAN-26,2014-088A,2026-07-22T22:39:28.212192,15.48695386,.00010041,97.0658,203.3517,259.5468,100.5670,0,U,40362,999,64323,.60611864E-3,.32448E-3,0
SMAP,2015-003A,2026-07-22T21:48:35.119584,14.63393853,.00016328,98.1287,210.4992,92.5641,267.5748,0,U,40376,999,61284,.73950799E-4,.335E-5,0
KOMPSAT-3A,2015-014A,2026-07-22T23:00:47.416032,15.55807072,.0055035,97.6900,197.9876,48.1883,312.4052,0,U,40536,999,62737,.49716929E-3,.36757E-3,0
SENTINEL-2A,2015-028A,2026-07-22T22:46:31.559232,14.30815589,.00013421,98.5669,278.2905,96.8654,263.2682,0,U,40697,999,57884,.8288481E-5,-.22E-6,0
GAOFEN-8,2015-030A,2026-07-22T22:21:53.106624,15.47172849,.00096311,97.6907,39.4789,72.1132,288.1166,0,U,40701,999,61697,.48614495E-3,.24678E-3,0
CARBONITE 1 (CBNT-1),2015-032D,2026-07-22T22:15:35.288928,14.83686849,.00145768,97.6535,20.5030,171.0043,189.1436,0,U,40718,999,59464,.2814346E-3,.2278E-4,0
YAOGAN-27,2015-040A,2026-07-22T23:40:23.569824,13.16072443,.0008792,100.1184,188.8189,128.2470,231.9436,0,U,40878,999,52237,-.25766126E-3,-.14E-5,0
GAOFEN-9 01,2015-047A,2026-07-22T23:02:13.251840,14.82946179,.0027886,97.6262,238.0273,25.8263,334.4336,0,U,40894,999,58549,.11402757E-3,.88E-5,0
YAOGAN-28,2015-064A,2026-07-22T22:56:58.504416,15.27833333,.00118674,97.3113,341.5085,68.9760,291.2747,0,U,41026,999,59614,.26831892E-3,.7234E-4,0
YAOGAN-29,2015-069A,2026-07-23T00:04:21.789408,14.83109876,.00000958,98.0026,232.6902,96.5568,263.5656,0,U,41038,999,57593,.207298E-6,-.52E-6,0
KENT RIDGE 1,2015-077B,2026-07-22T18:50:56.662656,15.23314624,.00082639,14.9809,1.2040,21.6474,338.4197,0,U,41167,999,58653,.10289083E-3,.328E-4,0
GAOFEN-4,2015-083A,2026-07-21T14:23:34.672704,1.00270335,.00041624,0.4439,83.8614,121.1097,55.9718,0,U,41194,999,3887,0,-.333E-5,0
JASON-3,2016-002A,2026-07-22T21:16:11.458272,12.87628968,.0008125,66.0415,50.7816,270.1805,89.8282,0,U,41240,999,49184,.74846122E-4,-.43E-6,0
SENTINEL-3A,2016-011A,2026-07-22T21:54:12.540960,14.26735830,.00012997,98.6231,270.7797,87.0308,273.1021,0,U,41335,999,54315,.43919799E-4,.63E-6,0
ZIYUAN 3-02 (ZY 3-02),2016-033A,2026-07-22T23:17:49.897824,15.21158279,.00135443,97.3821,279.0562,161.0314,199.1429,0,U,41556,999,56342,.27753278E-3,.6129E-4,0
CARTOSAT-2C,2016-040A,2026-07-22T22:57:14.294880,15.19304349,.00088931,97.4467,263.4381,21.0961,339.0639,0,U,41599,999,55914,.17819399E-3,.3696E-4,0
