{"epoch":1784799577,"count":18318,"objects":[{"id":"39766","name":"ALOS 2","type":"PAYLOAD","l1":"1 39766U 14029A   26203.91695302  .00001243  00000-0  17332-3 0  9994","l2":"2 39766  97.9224 300.5703 0001620  92.6159 267.5238 14.79473003656867"},{"id":"40010","name":"KAZEOSAT 2","type":"PAYLOAD","l1":"1 40010U 14033A   26203.93055866  .00000702  00000-0  87055-4 0  9999","l2":"2 40010  97.5403  41.6521 0007986 190.8129 169.2917 14.85508221654268"},{"id":"40011","name":"HODOYOSHI 4","type":"PAYLOAD","l1":"1 40011U 14033B   26203.93940343  .00001863  00000-0  20661-3 0  9991","l2":"2 40011  97.5470  27.0395 0023378 183.0523 177.0555 14.88204307654126"},{"id":"40013","name":"DEIMOS 2","type":"PAYLOAD","l1":"1 40013U 14033D   26203.95381706  .00001340  00000-0  13145-3 0  9996","l2":"2 40013  97.5787  77.1789 0001545 104.3447 255.7945 14.93813710643063"},{"id":"40015","name":"HODOYOSHI 3","type":"PAYLOAD","l1":"1 40015U 14033F   26203.88708641  .00001005  00000-0  12166-3 0  9991","l2":"2 40015  97.6454   5.4994 0031571 235.4440 124.3795 14.85449421652924"},{"id":"40053","name":"SPOT 7","type":"PAYLOAD","l1":"1 40053U 14034A   26203.93249374  .00000152  00000-0  40225-4 0  9993","l2":"2 40053  98.0609 265.4997 0001697  94.4528 265.6867 14.60984601642352"},{"id":"40072","name":"SKYSAT 2","type":"PAYLOAD","l1":"1 40072U 14037D   26202.62025596  .00000881  00000-0  10248-3 0  9990","l2":"2 40072  98.3858 163.5543 0006020 153.0763 207.0765 14.88102443651088"},{"id":"40115","name":"WORLDVIEW 3","type":"PAYLOAD","l1":"1 40115U 14048A   26203.94566273  .00000633  00000-0  80348-4 0  9992","l2":"2 40115  97.8550 278.2828 0001848 143.8996 216.2344 14.85072929647214"},{"id":"40118","name":"GAOFEN 2","type":"PAYLOAD","l1":"1 40118U 14049A   26203.98676682  .00000039  00000-0  11945-4 0  9993","l2":"2 40118  98.0089 268.1563 0008654 113.2185 246.9940 14.80932116644536"},{"id":"40143","name":"YAOGAN 21","type":"PAYLOAD","l1":"1 40143U 14053A   26203.95090520  .00005347  00000-0  20535-3 0  9995","l2":"2 40143  97.1465 242.6579 0006710 339.8626  20.2347 15.26831698660416"},{"id":"40275","name":"YAOGAN 22","type":"PAYLOAD","l1":"1 40275U 14063A   26203.85362061 -.00000015  00000-0  83718-4 0  9994","l2":"2 40275 100.7772 355.7263 0006913 109.5155 250.6703 13.15531726564507"},{"id":"40298","name":"ASNARO","type":"PAYLOAD","l1":"1 40298U 14070A   26203.98113587  .00005951  00000-0  28370-3 0  9993","l2":"2 40298  97.3436 279.1299 0004652  69.9614 290.2121 15.19456305649441"},{"id":"40310","name":"YAOGAN 24","type":"PAYLOAD","l1":"1 40310U 14072A   26203.94052046  .00000645  00000-0  10100-3 0  9995","l2":"2 40310  98.1534 341.5851 0015199 145.6477 214.5718 14.76124978628997"},{"id":"40336","name":"CBERS-4","type":"PAYLOAD","l1":"1 40336U 14079A   26203.93359983 -.00000176  00000-0 -46633-4 0  9991","l2":"2 40336  98.3512 259.6399 0000560  78.8436 281.2813 14.35516529609085"},{"id":"40362","name":"YAOGAN 26","type":"PAYLOAD","l1":"1 40362U 14088A   26203.94407653  .00032448  00000-0  60612-3 0  9996","l2":"2 40362  97.0658 203.3517 0001004 259.5468 100.5670 15.48695386643239"},{"id":"40376","name":"SMAP","type":"PAYLOAD","l1":"1 40376U 15003A   26203.90873981  .00000335  00000-0  73951-4 0  9997","l2":"2 40376  98.1287 210.4992 0001633  92.5641 267.5748 14.63393853612849"},{"id":"40536","name":"KOMPSAT 3A","type":"PAYLOAD","l1":"1 40536U 15014A   26203.95888213  .00036757  00000-0  49717-3 0  9995","l2":"2 40536  97.6900 197.9876 0055035  48.1883 312.4052 15.55807072627370"},{"id":"40697","name":"SENTINEL 2A","type":"PAYLOAD","l1":"1 40697U 15028A   26203.94897638 -.00000022  00000-0  82885-5 0  9990","l2":"2 40697  98.5669 278.2905 0001342  96.8654 263.2682 14.30815589578847"},{"id":"40701","name":"GAOFEN 8","type":"PAYLOAD","l1":"1 40701U 15030A   26203.93186466  .00024678  00000-0  48614-3 0  9990","l2":"2 40701  97.6907  39.4789 0009631  72.1132 288.1166 15.47172849616976"},{"id":"40718","name":"CARBONITE 1","type":"PAYLOAD","l1":"1 40718U 15032D   26203.92749177  .00002278  00000-0  28143-3 0  9990","l2":"2 40718  97.6535  20.5030 0014577 171.0043 189.1436 14.83686849594644"},{"id":"40878","name":"YAOGAN 27","type":"PAYLOAD","l1":"1 40878U 15040A   26203.98638391 -.00000140  00000-0 -25766-3 0  9993","l2":"2 40878 100.1184 188.8189 0008792 128.2470 231.9436 13.16072443522375"},{"id":"40894","name":"GAOFEN 9","type":"PAYLOAD","l1":"1 40894U 15047A   26203.95987560  .00000880  00000-0  11403-3 0  9992","l2":"2 40894  97.6262 238.0273 0027886  25.8263 334.4336 14.82946179585499"},{"id":"41026","name":"YAOGAN 28","type":"PAYLOAD","l1":"1 41026U 15064A   26203.95623269  .00007234  00000-0  26832-3 0  9994","l2":"2 41026  97.3113 341.5085 0011867  68.9760 291.2747 15.27833333596149"},{"id":"41038","name":"YAOGAN 29","type":"PAYLOAD","l1":"1 41038U 15069A   26204.00302997 -.00000052  00000-0  20730-6 0  9997","l2":"2 41038  98.0026 232.6902 0000096  96.5568 263.5656 14.83109876575930"},{"id":"41167","name":"KENT RIDGE 1","type":"PAYLOAD","l1":"1 41167U 15077B   26203.78537804  .00003280  00000-0  10289-3 0  9990","l2":"2 41167  14.9809   1.2040 0008264  21.6474 338.4197 15.23314624586536"},{"id":"41194","name":"GAOFEN 4","type":"PAYLOAD","l1":"1 41194U 15083A   26202.59970686 -.00000333  00000-0  00000-0 0  9998","l2":"2 41194   0.4439  83.8614 0004162 121.1097  55.9718  1.00270335 38877"},{"id":"41240","name":"JASON 3","type":"PAYLOAD","l1":"1 41240U 16002A   26203.88624373 -.00000043  00000-0  74846-4 0  9995","l2":"2 41240  66.0415  50.7816 0008125 270.1805  89.8282 12.87628968491841"},{"id":"41335","name":"SENTINEL 3A","type":"PAYLOAD","l1":"1 41335U 16011A   26203.91264515  .00000063  00000-0  43920-4 0  9992","l2":"2 41335  98.6231 270.7797 0001300  87.0308 273.1021 14.26735830543159"},{"id":"41556","name":"ZY 3 2","type":"PAYLOAD","l1":"1 41556U 16033A   26203.97071641  .00006129  00000-0  27753-3 0  9997","l2":"2 41556  97.3821 279.0562 0013544 161.0314 199.1429 15.21158279563423"},{"id":"41599","name":"CARTOSAT 2C","type":"PAYLOAD","l1":"1 41599U 16040A   26203.95641545  .00003696  00000-0  17819-3 0  9994","l2":"2 41599  97.4467 263.4381 0008893  21.0961 339.0639 15.19304349559147"}]}